SHERPA-LTC2             
1 53754U 22107BG  26201.98172872  .00002493  00000+0  13831-3 0  9997
2 53754  53.2364  77.2452 0393164 320.9482  36.3700 14.69946698207516
CENTISPACE-1 S3         
1 53757U 22108A   26202.61234772  .00000153  00000+0  68820-4 0  9990
2 53757  53.5327 272.9058 0010841  79.3005 280.9190 14.61287363206564
CENTISPACE-1 S4         
1 53758U 22108B   26202.58048438  .00000154  00000+0  68279-4 0  9998
2 53758  53.5301 270.3916 0010223  68.6471 291.5595 14.61972689206596
BLUEWALKER-3            
1 53807U 22111AL  26202.35020169  .00004373  00000+0  12299-3 0  9990
2 53807  53.2275 233.5359 0004718 292.9039  67.1468 15.38652942215468
YUNHAI-1 03             
1 53877U 22115A   26202.61699784  .00000304  00000+0  12781-3 0  9991
2 53877  98.5549 200.3295 0003791 317.5948  42.4942 14.32740656200443
CENTISPACE-1 S5         
1 54020U 22126A   26202.65445858  .00000554  00000+0  14376-3 0  9998
2 54020  54.9992  75.0271 0014047 136.9596 223.2500 14.63065102202082
CENTISPACE-1 S6         
1 54021U 22126B   26202.59659671  .00000450  00000+0  12553-3 0  9992
2 54021  54.9994  77.2859 0015818 138.2468 221.9736 14.62323998202031
OTB-3-GAZELLE           
1 54023U 22127A   26202.46024961  .00000114  00000+0  47189-4 0  9990
2 54023  98.3966 193.6461 0014470  85.6583 274.6260 14.42685628199303
ASO-S                   
1 54029U 22129A   26202.56981325  .00000142  00000+0  46033-4 0  9993
2 54029  98.2760 207.1599 0014092 352.9610   7.1385 14.52076949200417
HJ-2E                   
1 54035U 22132A   26202.59138182  .00005968  00000+0  25755-3 0  9990
2 54035  97.3813 206.3602 0018203 245.6234 114.3103 15.22748817209659
COSMOS 2561             
1 54109U 22137A   26201.88046605  .00009330  00000+0  15383-3 0  9999
2 54109  96.9163 259.6361 0008242 255.0048 105.0294 15.52463802211570
GONETS-M 23             
1 54150U 22139A   26202.55446773  .00000027  00000+0  12536-3 0  9993
2 54150  82.5100 326.9374 0022353 145.1176 215.1374 12.42892105169910
GONETS-M 24             
1 54151U 22139B   26202.60801990  .00000004  00000+0 -41263-4 0  9992
2 54151  82.5015 325.9405 0017440 154.6801 205.5137 12.42892542169927
GONETS-M 25             
1 54152U 22139C   26202.59446455  .00000024  00000+0  10421-3 0  9994
2 54152  82.5082 326.6536 0021389 153.5520 206.6656 12.42891012169927
SKIF-D                  
1 54153U 22139D   26202.23303696 -.00000011  00000+0  00000+0 0  9990
2 54153  89.9487  96.6583 0007482 184.8528 175.2117  5.00433163 65818
MATS                    
1 54227U 22147A   26202.47888425  .00002484  00000+0  17660-3 0  9994
2 54227  97.6841 203.9322 0014215  84.5887 275.6960 15.05530355202923
EOS-6 (OCEANSAT-3)      
1 54361U 22158A   26202.59904032  .00000168  00000+0  58099-4 0  9990
2 54361  98.3550 300.3378 0000771 152.5425 207.5809 14.46986689192817
DONGPO 09               
1 54685U 22167D   26202.59588340  .00010481  00000+0  29163-3 0  9997
2 54685  97.6930  15.1632 0002352  36.9280 323.2125 15.37028235200738
DONGPO 08               
1 54686U 22167E   26202.63747112  .00008764  00000+0  26639-3 0  9993
2 54686  97.6895  12.2197 0008952  54.2360 305.9714 15.34266964200604
DONGPO 10               
1 54689U 22167H   26202.62584804  .00009979  00000+0  29547-3 0  9992
2 54689  97.6975  14.2408 0004408   7.0435 353.0868 15.35086815200648
JILIN-1 GAOFEN 03D48    
1 54695U 22167P   26202.60602067  .00010169  00000+0  29345-3 0  9998
2 54695  97.6910  13.6104 0005849   8.1380 351.9956 15.35882349200675
STAR VIBE               
1 55009U 23001A   26202.60461712  .00012102  00000+0  27210-3 0  9994
2 55009  97.3148 267.2252 0004765   9.4413 350.6924 15.43466214197532
BRO-8                   
1 55011U 23001C   26202.64921885  .00031372  00000+0  53984-3 0  9990
2 55011  97.3179 268.3760 0004146  14.8316 345.3058 15.51035568197543
CONNECTA T1.2           
1 55012U 23001D   26202.14849117  .00034412  00000+0  54771-3 0  9996
2 55012  97.3232 273.4986 0003423 334.9335  25.1752 15.53206668197812
BIRKELAND               
1 55015U 23001G   26202.64129126  .00007707  00000+0  19135-3 0  9997
2 55015  97.3326 270.7091 0005635 357.9130   2.2092 15.40608039197650
ION SCV-008             
1 55051U 23001AU  26202.27412373  .00004851  00000+0  17505-3 0  9991
2 55051  97.5711 299.1727 0013324 249.2198 110.7614 15.28924203196544
ION SCV-007             
1 55060U 23001BD  26202.12563727  .00000270  00000+0  44868-4 0  9999
2 55060  97.8986 264.4643 0011393 221.2087 138.8264 14.77579526191267
HUYGENS                 
1 55093U 23001CN  26202.64137483  .00007946  00000+0  19711-3 0  9993
2 55093  97.3229 269.8940 0007751 327.0517  33.0245 15.40609475197677
SHARJAHSAT-1            
1 55104U 23001CZ  26202.65783542  .00018963  00000+0  33625-3 0  9991
2 55104  97.3139 271.9289 0004112 356.9631   3.1595 15.50284617197838
HORUS 1                 
1 55690U 23025A   26202.63685053  .00004287  00000+0  18379-3 0  9996
2 55690  97.3444 276.5070 0001741 112.7894 247.3527 15.23272154189291
