OBJECT_NAME,OBJECT_ID,EPOCH,MEAN_MOTION,ECCENTRICITY,INCLINATION,RA_OF_ASC_NODE,ARG_OF_PERICENTER,MEAN_ANOMALY,EPHEMERIS_TYPE,CLASSIFICATION_TYPE,NORAD_CAT_ID,ELEMENT_SET_NO,REV_AT_EPOCH,BSTAR,MEAN_MOTION_DOT,MEAN_MOTION_DDOT
SHERPA-LTC2,2022-107BG,2026-07-20T23:33:41.361408,14.69946698,.03931649,53.2364,77.2452,320.9482,36.3700,0,U,53754,999,20751,.13831328E-3,.2493E-4,0
CENTISPACE-1 S3,2022-108A,2026-07-21T14:41:46.843008,14.61287363,.0010841,53.5327,272.9058,79.3005,280.9190,0,U,53757,999,20656,.68820363E-4,.153E-5,0
CENTISPACE-1 S4,2022-108B,2026-07-21T13:55:53.850432,14.61972689,.0010223,53.5301,270.3916,68.6471,291.5595,0,U,53758,999,20659,.68278877E-4,.154E-5,0
BLUEWALKER-3,2022-111AL,2026-07-21T08:24:17.426016,15.38652942,.00047186,53.2275,233.5359,292.9039,67.1468,0,U,53807,999,21546,.12298572E-3,.4373E-4,0
YUNHAI-1 03,2022-115A,2026-07-21T14:48:28.613376,14.32740656,.00037917,98.5549,200.3295,317.5948,42.4942,0,U,53877,999,20044,.12780697E-3,.304E-5,0
CENTISPACE-1 S5,2022-126A,2026-07-21T15:42:25.221312,14.63065102,.00140476,54.9992,75.0271,136.9596,223.2500,0,U,54020,999,20208,.14375933E-3,.554E-5,0
CENTISPACE-1 S6,2022-126B,2026-07-21T14:19:05.955744,14.62323998,.00158183,54.9994,77.2859,138.2468,221.9736,0,U,54021,999,20203,.12552568E-3,.45E-5,0
OTB-3-GAZELLE,2022-127A,2026-07-21T11:02:45.566304,14.42685628,.00144708,98.3966,193.6461,85.6583,274.6260,0,U,54023,999,19930,.47189274E-4,.114E-5,0
ASO-S,2022-129A,2026-07-21T13:40:31.864800,14.52076949,.00140928,98.2760,207.1599,352.9610,7.1385,0,U,54029,999,20041,.4603291E-4,.142E-5,0
HJ-2E,2022-132A,2026-07-21T14:11:35.389248,15.22748817,.00182031,97.3813,206.3602,245.6234,114.3103,0,U,54035,999,20965,.25754919E-3,.5968E-4,0
COSMOS 2561,2022-137A,2026-07-20T21:07:52.266720,15.52463802,.0008242,96.9163,259.6361,255.0048,105.0294,0,U,54109,999,21157,.15383E-3,.933E-4,0
GONETS-M 23,2022-139A,2026-07-21T13:18:26.011872,12.42892105,.00223537,82.5100,326.9374,145.1176,215.1374,0,U,54150,999,16991,.12535897E-3,.27E-6,0
GONETS-M 24,2022-139B,2026-07-21T14:35:32.919360,12.42892542,.00174404,82.5015,325.9405,154.6801,205.5137,0,U,54151,999,16992,-.41263475E-4,.4E-7,0
GONETS-M 25,2022-139C,2026-07-21T14:16:01.737120,12.42891012,.00213891,82.5082,326.6536,153.5520,206.6656,0,U,54152,999,16992,.10420508E-3,.24E-6,0
SKIF-D,2022-139D,2026-07-21T05:35:34.393344,5.00433163,.00074829,89.9487,96.6583,184.8528,175.2117,0,U,54153,999,6581,0,-.11E-6,0
MATS,2022-147A,2026-07-21T11:29:35.599200,15.05530355,.00142156,97.6841,203.9322,84.5887,275.6960,0,U,54227,999,20292,.1765965E-3,.2484E-4,0
EOS-6 (OCEANSAT-3),2022-158A,2026-07-21T14:22:37.083648,14.46986689,.00007713,98.3550,300.3378,152.5425,207.5809,0,U,54361,999,19281,.58098682E-4,.168E-5,0
DONGPO 09,2022-167D,2026-07-21T14:18:04.325760,15.37028235,.00023527,97.6930,15.1632,36.9280,323.2125,0,U,54685,999,20073,.29163393E-3,.10481E-3,0
DONGPO 08,2022-167E,2026-07-21T15:17:57.504768,15.34266964,.00089524,97.6895,12.2197,54.2360,305.9714,0,U,54686,999,20060,.26639274E-3,.8764E-4,0
DONGPO 10,2022-167H,2026-07-21T15:01:13.270656,15.35086815,.00044084,97.6975,14.2408,7.0435,353.0868,0,U,54689,999,20064,.29546701E-3,.9979E-4,0
JILIN-1 GAOFEN 03D48,2022-167P,2026-07-21T14:32:40.185888,15.35882349,.00058494,97.6910,13.6104,8.1380,351.9956,0,U,54695,999,20067,.29344987E-3,.10169E-3,0
STAR VIBE,2023-001A,2026-07-21T14:30:38.919168,15.43466214,.00047654,97.3148,267.2252,9.4413,350.6924,0,U,55009,999,19753,.27210171E-3,.12102E-3,0
BRO-8,2023-001C,2026-07-21T15:34:52.508640,15.51035568,.00041469,97.3179,268.3760,14.8316,345.3058,0,U,55011,999,19754,.53984046E-3,.31372E-3,0
CONNECTA T1.2,2023-001D,2026-07-21T03:33:49.637088,15.53206668,.00034234,97.3232,273.4986,334.9335,25.1752,0,U,55012,999,19781,.54770722E-3,.34412E-3,0
BIRKELAND,2023-001G,2026-07-21T15:23:27.564864,15.40608039,.00056354,97.3326,270.7091,357.9130,2.2092,0,U,55015,999,19765,.19134924E-3,.7707E-4,0
ION SCV-008,2023-001AU,2026-07-21T06:34:44.290272,15.28924203,.00133249,97.5711,299.1727,249.2198,110.7614,0,U,55051,999,19654,.17504751E-3,.4851E-4,0
ION SCV-007,2023-001BD,2026-07-21T03:00:55.060128,14.77579526,.00113936,97.8986,264.4643,221.2087,138.8264,0,U,55060,999,19126,.44868266E-4,.27E-5,0
HUYGENS,2023-001CN,2026-07-21T15:23:34.785312,15.40609475,.00077518,97.3229,269.8940,327.0517,33.0245,0,U,55093,999,19767,.19711101E-3,.7946E-4,0
SHARJAHSAT-1,2023-001CZ,2026-07-21T15:47:16.980288,15.50284617,.00041128,97.3139,271.9289,356.9631,3.1595,0,U,55104,999,19783,.33624785E-3,.18963E-3,0
HORUS 1,2023-025A,2026-07-21T15:17:03.885792,15.23272154,.0001741,97.3444,276.5070,112.7894,247.3527,0,U,55690,999,18929,.18379E-3,.4287E-4,0
